NORAD_CAT_ID,OBJECT_NAME,OBJECT_TYPE,EPOCH,MEAN_MOTION,ECCENTRICITY,INCLINATION,RA_OF_ASC_NODE,ARG_OF_PERICENTER,MEAN_ANOMALY,BSTAR,MEAN_MOTION_DOT,MEAN_MOTION_DDOT,TLE_LINE0,TLE_LINE1,TLE_LINE2,SEMIMAJOR_AXIS,PERIOD,APOGEE,PERIGEE,DECAYED
49174.0,STARLINK-3047,PAYLOAD,2022-01-02 14:00:01,15.69835392,0.0003487,69.9991,176.3081,275.0548,297.1117,-0.0010141,-0.00119988,0.0,0 STARLINK-3047,1 49174U 21082AW  22002.58334491 -.00119988  00000-0 -10141-2 0  9998,2 49174  69.9991 176.3081 0003487 275.0548 297.1117 15.69835392  3652,6737.505,91.729,361.719,357.021,0.0
49174.0,STARLINK-3047,PAYLOAD,2022-01-02 22:00:00,15.6972326,0.0003682,69.9991,175.37099999999995,281.1405,14.2118,0.00048702,0.00058272,0.0,0 STARLINK-3047,1 49174U 21082AW  22002.91667824  .00058272  00000-0  48702-3 0  9995,2 49174  69.9991 175.3710 0003682 281.1405  14.2118 15.69723260  3690,6737.826,91.736,362.172,357.21,0.0
49174.0,STARLINK-3047,PAYLOAD,2022-01-03 14:00:01,15.69828473,0.0003523999999999,69.9991,173.4974,276.6678,184.9315,-0.00103,-0.00121806,0.0,0 STARLINK-3047,1 49174U 21082AW  22003.58334491 -.00121806  00000-0 -10300-2 0  9998,2 49174  69.9991 173.4974 0003524 276.6678 184.9315 15.69828473 18767,6737.525,91.73,361.764,357.015,0.0
49174.0,STARLINK-3047,PAYLOAD,2022-01-03 22:00:00,15.69706821,0.0003448,69.9988,172.5603,282.8015,261.9815,0.00053353,0.00063853,0.0,0 STARLINK-3047,1 49174U 21082AW  22003.91667824  .00063853  00000-0  53353-3 0  9995,2 49174  69.9988 172.5603 0003448 282.8015 261.9815 15.69706821  3689,6737.873000000001,91.737,362.061,357.415,0.0
49174.0,STARLINK-3047,PAYLOAD,2022-01-04 10:00:00,15.6973943,0.0003394,69.9992,171.155,275.2117,214.231,0.00050663,0.00060682,0.0,0 STARLINK-3047,1 49174U 21082AW  22004.41667824  .00060682  00000-0  50663-3 0  9999,2 49174  69.9992 171.1550 0003394 275.2117 214.2310 15.69739430 18891,6737.78,91.735,361.931,357.358,0.0
49174.0,STARLINK-3047,PAYLOAD,2022-01-04 14:00:01,15.698121,0.0003557,69.9996,170.6865,277.3184,73.6781,-0.00075613,-0.00089755,0.0,0 STARLINK-3047,1 49174U 21082AW  22004.58334491 -.00089755  00000-0 -75613-3 0  9994,2 49174  69.9996 170.6865 0003557 277.3184  73.6781 15.69812100  3738,6737.571999999999,91.731,361.833,357.04,0.0
49174.0,STARLINK-3047,PAYLOAD,2022-01-04 20:09:22,15.69760829,0.0003068,70.0001,169.9662,279.153,80.9318,8.690000000000001e-05,0.00010179,0.0,0 STARLINK-3047,1 49174U 21082AW  22004.83984503  .00010179  00000-0  86900-4 0  9991,2 49174  70.0001 169.9662 0003068 279.1530  80.9318 15.69760829 18964,6737.718000000003,91.734,361.65,357.516,0.0
49174.0,STARLINK-3047,PAYLOAD,2022-01-04 22:00:00,15.69710425,0.0003672,69.9996,169.7492,282.3942,151.7568,0.00025989,0.00030878,0.0,0 STARLINK-3047,1 49174U 21082AW  22004.91667824  .00030878  00000-0  25989-3 0  9991,2 49174  69.9996 169.7492 0003672 282.3942 151.7568 15.69710425 18979,6737.863,91.737,362.202,357.25300000000016,0.0
49174.0,STARLINK-3047,PAYLOAD,2022-01-05 14:00:01,15.69761639,0.0003662,69.9999,167.8759,277.691,322.6395,-0.00027106,-0.00032464,0.0,0 STARLINK-3047,1 49174U 21082AW  22005.58334491 -.00032464  00000-0 -27106-3 0  9994,2 49174  69.9999 167.8759 0003662 277.6910 322.6395 15.69761639 19070,6737.715999999999,91.734,362.048,357.11400000000015,0.0
49174.0,STARLINK-3047,PAYLOAD,2022-01-05 22:00:00,15.69735804,0.0003755,69.9994,166.9389,283.4018,40.0598,0.00037106,0.00044296,0.0,0 STARLINK-3047,1 49174U 21082AW  22005.91667824  .00044296  00000-0  37106-3 0  9995,2 49174  69.9994 166.9389 0003755 283.4018  40.0598 15.69735804  3682,6737.79,91.735,362.185,357.125,0.0
49174.0,STARLINK-3047,PAYLOAD,2022-01-06 06:00:00,15.69717534,0.0003666,69.9996,166.0019,277.1227,129.4736,0.00064305,0.00077164,0.0,0 STARLINK-3047,1 49174U 21082AW  22006.25001157  .00077164  00000-0  64305-3 0  9995,2 49174  69.9996 166.0019 0003666 277.1227 129.4736 15.69717534 19186,6737.842,91.736,362.177,357.237,0.0
49174.0,STARLINK-3047,PAYLOAD,2022-01-06 14:00:01,15.69817391,0.0003628,70.0,165.0648,278.786,210.9266,-0.0010088,-0.00119287,0.0,0 STARLINK-3047,1 49174U 21082AW  22006.58334491 -.00119287  00000-0 -10088-2 0  9994,2 49174  70.0000 165.0648 0003628 278.7860 210.9266 15.69817391  3684,6737.556,91.73,361.866,356.977,0.0
49174.0,STARLINK-3047,PAYLOAD,2022-01-06 22:00:00,15.69714724,0.00035,69.9999,164.1278,284.0625,288.8184,0.00029646,0.00035277,0.0,0 STARLINK-3047,1 49174U 21082AW  22006.91667824  .00035277  00000-0  29646-3 0  9995,2 49174  69.9999 164.1278 0003500 284.0625 288.8184 15.69714724 19287,6737.85,91.736,362.073,357.357,0.0
49174.0,STARLINK-3047,PAYLOAD,2022-01-07 14:00:01,15.69771356,0.0003468,70.0001,162.2545,280.1261,98.949,-0.00036405,-0.00043487,0.0,0 STARLINK-3047,1 49174U 21082AW  22007.58334491 -.00043487  00000-0 -36405-3 0  9995,2 49174  70.0001 162.2545 0003468 280.1261  98.9490 15.69771356 19392,6737.688,91.733,361.89,357.217,0.0
49174.0,STARLINK-3047,PAYLOAD,2022-01-07 22:00:00,15.69745793,0.0003523999999999,69.9995,161.3174,285.3279,176.88099999999997,0.00021543,0.0002558,0.0,0 STARLINK-3047,1 49174U 21082AW  22007.91667824  .00025580  00000-0  21543-3 0  9990,2 49174  69.9995 161.3174 0003524 285.3279 176.8810 15.69745793  3670,6737.761,91.735,362.001,357.25199999999984,0.0
49174.0,STARLINK-3047,PAYLOAD,2022-01-08 06:00:00,15.69726352,0.0003494,69.9995,160.3803,278.9032,266.4575,0.00066916,0.00080364,0.0,0 STARLINK-3047,1 49174U 21082AW  22008.25001157  .00080364  00000-0  66916-3 0  9993,2 49174  69.9995 160.3803 0003494 278.9032 266.4575 15.69726352 19490,6737.816999999999,91.736,362.036,357.32800000000015,0.0
49174.0,STARLINK-3047,PAYLOAD,2022-01-08 14:00:01,15.698002300000002,0.0003568,69.9997,159.4433,280.5224,347.9744,-0.00023617,-0.00028371,0.0,0 STARLINK-3047,1 49174U 21082AW  22008.58334491 -.00028371  00000-0 -23617-3 0  9992,2 49174  69.9997 159.4433 0003568 280.5224 347.9744 15.69800230  3667,6737.606,91.731,361.875,357.06699999999995,0.0
49174.0,STARLINK-3047,PAYLOAD,2022-01-08 22:00:00,15.69791953,0.0003726,69.9995,158.5063,285.1788,66.4878,-0.00058865,-0.00070029,0.0,0 STARLINK-3047,1 49174U 21082AW  22008.91667824 -.00070029  00000-0 -58865-3 0  9998,2 49174  69.9995 158.5063 0003726 285.1788  66.4878 15.69791953 19597,6737.629,91.732,362.005,356.9840000000001,0.0
49174.0,STARLINK-3047,PAYLOAD,2022-01-09 14:00:01,15.69795026,0.0003746,69.9997,156.6327,281.8697,236.0872,-0.00019795,-0.00023823,0.0,0 STARLINK-3047,1 49174U 21082AW  22009.58334491 -.00023823  00000-0 -19795-3 0  9992,2 49174  69.9997 156.6327 0003746 281.8697 236.0872 15.69795026 19702,6737.62,91.732,362.009,356.962,0.0
49174.0,STARLINK-3047,PAYLOAD,2022-01-09 22:00:00,15.69789234,0.0003688,69.999,155.6957,286.0164,315.1142,-0.00050988,-0.00060746,0.0,0 STARLINK-3047,1 49174U 21082AW  22009.91667824 -.00060746  00000-0 -50988-3 0  9992,2 49174  69.9990 155.6957 0003688 286.0164 315.1142 15.69789234  3676,6737.637,91.732,361.987,357.017,0.0
49174.0,STARLINK-3047,PAYLOAD,2022-01-10 14:00:01,15.69712193,0.0003367,69.9992,153.8216,283.7263,123.6514,-0.00016313,-0.00019611,0.0,0 STARLINK-3047,1 49174U 21082AW  22010.58334491 -.00019611  00000-0 -16313-3 0  9997,2 49174  69.9992 153.8216 0003367 283.7263 123.6514 15.69712193 19867,6737.857,91.737,361.991,357.454,0.0
49174.0,STARLINK-3047,PAYLOAD,2022-01-10 22:00:00,15.69722695,0.0003355,69.9989,152.8846,288.9184,201.531,4.0508e-05,4.621e-05,0.0,0 STARLINK-3047,1 49174U 21082AW  22010.91667824  .00004621  00000-0  40508-4 0  9990,2 49174  69.9989 152.8846 0003355 288.9184 201.5310 15.69722695  3688,6737.8269999999975,91.736,361.953,357.432,0.0
49174.0,STARLINK-3047,PAYLOAD,2022-01-11 06:00:00,15.69687739,0.0003288,69.9991,151.9479,282.6905,290.8638,0.00083507,0.00100419,0.0,0 STARLINK-3047,1 49174U 21082AW  22011.25001157  .00100419  00000-0  83507-3 0  9996,2 49174  69.9991 151.9479 0003288 282.6905 290.8638 15.69687739 19961,6737.927,91.738,362.008,357.577,0.0
49174.0,STARLINK-3047,PAYLOAD,2022-01-11 14:00:01,15.6976334,0.0003415,69.9994,151.0111,285.5174,11.1355,-0.00011794,-0.00014276,0.0,0 STARLINK-3047,1 49174U 21082AW  22011.58334491 -.00014276  00000-0 -11794-3 0  9998,2 49174  69.9994 151.0111 0003415 285.5174  11.1355 15.69763340  3685,6737.7109999999975,91.734,361.877,357.275,0.0
49174.0,STARLINK-3047,PAYLOAD,2022-01-11 22:00:00,15.69792988,0.0003651,69.9988,150.07399999999996,288.4925,91.295,-0.00081132,-0.00096144,0.0,0 STARLINK-3047,1 49174U 21082AW  22011.91667824 -.00096144  00000-0 -81132-3 0  9991,2 49174  69.9988 150.0740 0003651 288.4925  91.2950 15.69792988 20075,6737.626,91.732,361.951,357.031,0.0
49174.0,STARLINK-3047,PAYLOAD,2022-01-12 14:00:01,15.69741061,0.0003748,69.999,148.2,285.1519,260.868,-8.529500000000002e-08,-2.23e-06,0.0,0 STARLINK-3047,1 49174U 21082AW  22012.58334491 -.00000223  00000-0 -85295-7 0  9997,2 49174  69.9990 148.2000 0003748 285.1519 260.8680 15.69741061 20177,6737.775,91.735,362.165,357.115,0.0
49174.0,STARLINK-3047,PAYLOAD,2022-01-12 22:00:00,15.69765751,0.000372,69.9988,147.263,288.5117,340.6207,-3.9851e-05,-4.9700000000000015e-05,0.0,0 STARLINK-3047,1 49174U 21082AW  22012.91667824 -.00004970  00000-0 -39851-4 0  9990,2 49174  69.9988 147.2630 0003720 288.5117 340.6207 15.69765751 20223,6737.704000000002,91.733,362.076,357.06300000000016,0.0
49174.0,STARLINK-3047,PAYLOAD,2022-01-13 14:00:01,15.69740216,0.0003556,69.9996,145.3894,287.1922,148.2298,-6.1025e-05,-7.488e-05,0.0,0 STARLINK-3047,1 49174U 21082AW  22013.58334491 -.00007488  00000-0 -61025-4 0  9990,2 49174  69.9996 145.3894 0003556 287.1922 148.2298 15.69740216  3669,6737.776999999999,91.735,362.038,357.246,0.0
49174.0,STARLINK-3047,PAYLOAD,2022-01-13 22:00:00,15.69765311,0.0003608,69.9991,144.4524,289.746,228.7844,-0.00014215,-0.00017159,0.0,0 STARLINK-3047,1 49174U 21082AW  22013.91667824 -.00017159  00000-0 -14215-3 0  9990,2 49174  69.9991 144.4524 0003608 289.7460 228.7844 15.69765311  3661,6737.705,91.733,362.001,357.14,0.0
